[Satellite]
VERSION=1.1
NAME=NOAA 11 [-]
NICKNAME=NOAA 11 [-]
TLE1=1 19531U 88089A   20158.07837721  .00000002  00000-0  21742-4 0  9995
TLE2=2 19531  98.4131 178.1333 0011758 151.1492 209.0335 14.15256155636202
STATUS=2
